{
  "type": "FeatureCollection",
  "features": [
    {
      "type": "Feature",
      "properties": {
        "norad_id": 31058,
        "name": "FENGYUN 1C DEB",
        "group": "fengyun-1c-debris",
        "lat": 75.8391907890643,
        "lon": -93.82071226035666,
        "alt_km": 566.5856840309116,
        "timestamp": "2025-12-22T23:36:20.993744+00:00",
        "meta_object_name": "FENGYUN 1C DEB",
        "meta_object_id": "1999-025BFC",
        "meta_epoch": "2025-12-21T14:43:24.737664",
        "meta_mean_motion": 14.76461843,
        "meta_eccentricity": 0.009522,
        "meta_inclination": 99.5682,
        "meta_ra_of_asc_node": 306.5125,
        "meta_arg_of_pericenter": 79.2038,
        "meta_mean_anomaly": 281.9867,
        "meta_ephemeris_type": 0,
        "meta_classification_type": "U",
        "meta_norad_cat_id": 31058,
        "meta_element_set_no": 999,
        "meta_rev_at_epoch": 99680,
        "meta_bstar": 0.001027,
        "meta_mean_motion_dot": 7.633e-05,
        "meta_mean_motion_ddot": 0,
        "tle_line1": "1 31058U 99025BFC 25355.61348076  .00007633  00000+0  10270-2 0  9997",
        "tle_line2": "2 31058  99.5682 306.5125 0095220  79.2038 281.9867 14.76461843996804"
      },
      "geometry": {
        "type": "Point",
        "coordinates": [
          -93.82071226035666,
          75.8391907890643
        ]
      }
    },
    {
      "type": "Feature",
      "properties": {
        "norad_id": 31062,
        "name": "FENGYUN 1C DEB",
        "group": "fengyun-1c-debris",
        "lat": 41.49585896295474,
        "lon": 6.863056465434036,
        "alt_km": 1087.4866846383038,
        "timestamp": "2025-12-22T23:36:20.993754+00:00",
        "meta_object_name": "FENGYUN 1C DEB",
        "meta_object_id": "1999-025BFG",
        "meta_epoch": "2025-12-21T19:04:32.530944",
        "meta_mean_motion": 13.75696245,
        "meta_eccentricity": 0.01714117,
        "meta_inclination": 98.9968,
        "meta_ra_of_asc_node": 177.6844,
        "meta_arg_of_pericenter": 293.7369,
        "meta_mean_anomaly": 80.7962,
        "meta_ephemeris_type": 0,
        "meta_classification_type": "U",
        "meta_norad_cat_id": 31062,
        "meta_element_set_no": 999,
        "meta_rev_at_epoch": 94358,
        "meta_bstar": 0.00022693865,
        "meta_mean_motion_dot": 2.01e-06,
        "meta_mean_motion_ddot": 0,
        "tle_line1": "1 31062U 99025BFG 25355.79482096  .00000201  00000+0  22694-3 0  9990",
        "tle_line2": "2 31062  98.9968 177.6844 0171411 293.7369  80.7962 13.75696245943583"
      },
      "geometry": {
        "type": "Point",
        "coordinates": [
          6.863056465434036,
          41.49585896295474
        ]
      }
    },
    {
      "type": "Feature",
      "properties": {
        "norad_id": 31064,
        "name": "FENGYUN 1C DEB",
        "group": "fengyun-1c-debris",
        "lat": -19.556812534578164,
        "lon": 156.3245046266501,
        "alt_km": 937.2879322565987,
        "timestamp": "2025-12-22T23:36:20.993765+00:00",
        "meta_object_name": "FENGYUN 1C DEB",
        "meta_object_id": "1999-025BFJ",
        "meta_epoch": "2025-12-21T04:43:40.179648",
        "meta_mean_motion": 14.22153022,
        "meta_eccentricity": 0.02409976,
        "meta_inclination": 98.5743,
        "meta_ra_of_asc_node": 337.6577,
        "meta_arg_of_pericenter": 337.0395,
        "meta_mean_anomaly": 83.0249,
        "meta_ephemeris_type": 0,
        "meta_classification_type": "U",
        "meta_norad_cat_id": 31064,
        "meta_element_set_no": 999,
        "meta_rev_at_epoch": 97375,
        "meta_bstar": 0.00026684227,
        "meta_mean_motion_dot": 7.46e-06,
        "meta_mean_motion_ddot": 0,
        "tle_line1": "1 31064U 99025BFJ 25355.19699282  .00000746  00000+0  26684-3 0  9990",
        "tle_line2": "2 31064  98.5743 337.6577 0240997 337.0395  83.0249 14.22153022973750"
      },
      "geometry": {
        "type": "Point",
        "coordinates": [
          156.3245046266501,
          -19.556812534578164
        ]
      }
    },
    {
      "type": "Feature",
      "properties": {
        "norad_id": 31065,
        "name": "FENGYUN 1C DEB",
        "group": "fengyun-1c-debris",
        "lat": -5.661802033221788,
        "lon": 16.625642574099786,
        "alt_km": 776.5124961224583,
        "timestamp": "2025-12-22T23:36:20.993775+00:00",
        "meta_object_name": "FENGYUN 1C DEB",
        "meta_object_id": "1999-025BFK",
        "meta_epoch": "2025-12-20T07:44:23.606880",
        "meta_mean_motion": 14.28204774,
        "meta_eccentricity": 0.00348587,
        "meta_inclination": 98.4646,
        "meta_ra_of_asc_node": 13.1998,
        "meta_arg_of_pericenter": 9.0765,
        "meta_mean_anomaly": 351.1039,
        "meta_ephemeris_type": 0,
        "meta_classification_type": "U",
        "meta_norad_cat_id": 31065,
        "meta_element_set_no": 999,
        "meta_rev_at_epoch": 64686,
        "meta_bstar": 0.00062313484,
        "meta_mean_motion_dot": 1.52e-05,
        "meta_mean_motion_ddot": 0,
        "tle_line1": "1 31065U 99025BFK 25354.32249545  .00001520  00000+0  62313-3 0  9998",
        "tle_line2": "2 31065  98.4646  13.1998 0034858   9.0765 351.1039 14.28204774646861"
      },
      "geometry": {
        "type": "Point",
        "coordinates": [
          16.625642574099786,
          -5.661802033221788
        ]
      }
    },
    {
      "type": "Feature",
      "properties": {
        "norad_id": 31068,
        "name": "FENGYUN 1C DEB",
        "group": "fengyun-1c-debris",
        "lat": 52.38047289822297,
        "lon": -32.63801774855368,
        "alt_km": 759.3141022210675,
        "timestamp": "2025-12-22T23:36:20.993785+00:00",
        "meta_object_name": "FENGYUN 1C DEB",
        "meta_object_id": "1999-025BFN",
        "meta_epoch": "2025-12-21T16:41:05.635104",
        "meta_mean_motion": 14.09196392,
        "meta_eccentricity": 0.0165876,
        "meta_inclination": 98.6298,
        "meta_ra_of_asc_node": 337.4923,
        "meta_arg_of_pericenter": 92.9453,
        "meta_mean_anomaly": 269.0714,
        "meta_ephemeris_type": 0,
        "meta_classification_type": "U",
        "meta_norad_cat_id": 31068,
        "meta_element_set_no": 999,
        "meta_rev_at_epoch": 96481,
        "meta_bstar": 0.00010399324,
        "meta_mean_motion_dot": 1.65e-06,
        "meta_mean_motion_ddot": 0,
        "tle_line1": "1 31068U 99025BFN 25355.69520411  .00000165  00000+0  10399-3 0  9997",
        "tle_line2": "2 31068  98.6298 337.4923 0165876  92.9453 269.0714 14.09196392964819"
      },
      "geometry": {
        "type": "Point",
        "coordinates": [
          -32.63801774855368,
          52.38047289822297
        ]
      }
    },
    {
      "type": "Feature",
      "properties": {
        "norad_id": 31069,
        "name": "FENGYUN 1C DEB",
        "group": "fengyun-1c-debris",
        "lat": 12.466528005650092,
        "lon": 156.18186089485562,
        "alt_km": 641.9370942993337,
        "timestamp": "2025-12-22T23:36:20.993795+00:00",
        "meta_object_name": "FENGYUN 1C DEB",
        "meta_object_id": "1999-025BFP",
        "meta_epoch": "2025-12-20T17:09:56.113056",
        "meta_mean_motion": 14.57151959,
        "meta_eccentricity": 0.01043248,
        "meta_inclination": 99.0993,
        "meta_ra_of_asc_node": 155.736,
        "meta_arg_of_pericenter": 53.4161,
        "meta_mean_anomaly": 307.6579,
        "meta_ephemeris_type": 0,
        "meta_classification_type": "U",
        "meta_norad_cat_id": 31069,
        "meta_element_set_no": 999,
        "meta_rev_at_epoch": 98802,
        "meta_bstar": 0.00037067692,
        "meta_mean_motion_dot": 1.741e-05,
        "meta_mean_motion_ddot": 0,
        "tle_line1": "1 31069U 99025BFP 25354.71523279  .00001741  00000+0  37068-3 0  9998",
        "tle_line2": "2 31069  99.0993 155.7360 0104324  53.4161 307.6579 14.57151959988022"
      },
      "geometry": {
        "type": "Point",
        "coordinates": [
          156.18186089485562,
          12.466528005650092
        ]
      }
    },
    {
      "type": "Feature",
      "properties": {
        "norad_id": 31071,
        "name": "FENGYUN 1C DEB",
        "group": "fengyun-1c-debris",
        "lat": -52.831379595131395,
        "lon": 87.64140369998658,
        "alt_km": 701.1264869005263,
        "timestamp": "2025-12-22T23:36:20.993805+00:00",
        "meta_object_name": "FENGYUN 1C DEB",
        "meta_object_id": "1999-025BFR",
        "meta_epoch": "2025-12-17T11:36:27.822240",
        "meta_mean_motion": 14.52669079,
        "meta_eccentricity": 0.00558821,
        "meta_inclination": 99.0414,
        "meta_ra_of_asc_node": 69.5951,
        "meta_arg_of_pericenter": 267.3702,
        "meta_mean_anomaly": 92.1094,
        "meta_ephemeris_type": 0,
        "meta_classification_type": "U",
        "meta_norad_cat_id": 31071,
        "meta_element_set_no": 999,
        "meta_rev_at_epoch": 65563,
        "meta_bstar": 0.00084122866,
        "meta_mean_motion_dot": 3.464e-05,
        "meta_mean_motion_ddot": 0,
        "tle_line1": "1 31071U 99025BFR 25351.48365535  .00003464  00000+0  84123-3 0  9999",
        "tle_line2": "2 31071  99.0414  69.5951 0055882 267.3702  92.1094 14.52669079655630"
      },
      "geometry": {
        "type": "Point",
        "coordinates": [
          87.64140369998658,
          -52.831379595131395
        ]
      }
    }
  ]
}